NORAD_CAT_ID,OBJECT_NAME,OBJECT_TYPE,EPOCH,MEAN_MOTION,ECCENTRICITY,INCLINATION,RA_OF_ASC_NODE,ARG_OF_PERICENTER,MEAN_ANOMALY,BSTAR,MEAN_MOTION_DOT,MEAN_MOTION_DDOT,TLE_LINE0,TLE_LINE1,TLE_LINE2,SEMIMAJOR_AXIS,PERIOD,APOGEE,PERIGEE,DECAYED
49458.0,STARLINK-3156,PAYLOAD,2022-01-19 14:00:01,15.49817024,0.0001623,53.2173,162.6529,40.4387,104.8947,-0.010249,-0.00542293,0.0,0 STARLINK-3156,1 49458U 21104BC  22019.58334491 -.00542293  00000-0 -10249-1 0  9993,2 49458  53.2173 162.6529 0001623  40.4387 104.8947 15.49817024  3661,6795.398,92.914,418.366,416.16,0.0
49458.0,STARLINK-3156,PAYLOAD,2022-01-19 20:00:01,15.49538837,0.0001554,53.2173,161.4623,39.927,60.9024,-0.012183,-0.00631057,0.0,0 STARLINK-3156,1 49458U 21104BC  22019.83334491 -.00631057  00000-0 -12183-1 0  9997,2 49458  53.2173 161.4623 0001554  39.9270  60.9024 15.49538837 11850,6796.2109999999975,92.931,419.132,417.02,0.0
49458.0,STARLINK-3156,PAYLOAD,2022-01-19 22:00:00,15.49388466,0.000164,53.217,161.0641,43.2634,162.6815,-0.010427,-0.00543317,0.0,0 STARLINK-3156,1 49458U 21104BC  22019.91667824 -.00543317  00000-0 -10427-1 0  9995,2 49458  53.2170 161.0641 0001640  43.2634 162.6815 15.49388466  3682,6796.651,92.94,419.631,417.401,0.0
49458.0,STARLINK-3156,PAYLOAD,2022-01-20 04:00:00,15.48974093,0.0001713,53.2173,159.8693,36.4044,124.6625,-0.00076421,-0.00042224,0.0,0 STARLINK-3156,1 49458U 21104BC  22020.16667824 -.00042224  00000-0 -76421-3 0  9993,2 49458  53.2173 159.8693 0001713  36.4044 124.6625 15.48974093 11915,6797.863,92.965,420.892,418.56300000000016,0.0
49458.0,STARLINK-3156,PAYLOAD,2022-01-20 14:00:01,15.49000966,0.0001898,53.2164,157.8714,35.9497,289.9394,0.00034436,0.00018543,0.0,0 STARLINK-3156,1 49458U 21104BC  22020.58334491  .00018543  00000-0  34436-3 0  9995,2 49458  53.2164 157.8714 0001898  35.9497 289.9394 15.49000966  3657,6797.784000000002,92.963,420.94,418.359,0.0
49458.0,STARLINK-3156,PAYLOAD,2022-01-20 20:00:01,15.49005853,0.0001969,53.2162,156.6814,31.3787,249.4664,0.00089893,0.0004933,0.0,0 STARLINK-3156,1 49458U 21104BC  22020.83335648  .00049330  00000-0  89893-3 0  9993,2 49458  53.2162 156.6814 0001969  31.3787 249.4664 15.49005853 12015,6797.77,92.963,420.974,418.297,0.0
49458.0,STARLINK-3156,PAYLOAD,2022-01-20 22:00:00,15.49079267,0.0002032,53.2165,156.2847,27.178,358.5521,-0.0021277,-0.00116106,0.0,0 STARLINK-3156,1 49458U 21104BC  22020.91667824 -.00116106  00000-0 -21277-2 0  9995,2 49458  53.2165 156.2847 0002032  27.1780 358.5521 15.49079267  3674,6797.555,92.958,420.802,418.039,0.0
49458.0,STARLINK-3156,PAYLOAD,2022-01-21 04:00:00,15.49094563,0.0001819,53.2174,155.0939,32.1723,308.4947,-0.011426,-0.0058602,0.0,0 STARLINK-3156,1 49458U 21104BC  22021.16667824 -.00586020  00000-0 -11426-1 0  9993,2 49458  53.2174 155.0939 0001819  32.1723 308.4947 15.49094563 12063,6797.511,92.958,420.612,418.139,0.0
49458.0,STARLINK-3156,PAYLOAD,2022-01-21 12:00:00,15.48823192,0.0001956,53.2173,153.5088,27.7123,12.6168,-0.01253,-0.00632724,0.0,0 STARLINK-3156,1 49458U 21104BC  22021.50001157 -.00632724  00000-0 -12530-1 0  9992,2 49458  53.2173 153.5088 0001956  27.7123  12.6168 15.48823192 12118,6798.304,92.974,421.499,418.84,0.0
49458.0,STARLINK-3156,PAYLOAD,2022-01-21 14:00:01,15.48241148,0.0002165,53.2176,153.1091,42.0828,103.279,0.00048189,0.00025457,0.0,0 STARLINK-3156,1 49458U 21104BC  22021.58334491  .00025457  00000-0  48189-3 0  9998,2 49458  53.2176 153.1091 0002165  42.0828 103.2790 15.48241148  3669,6800.0080000000025,93.009,423.345,420.401,0.0
49458.0,STARLINK-3156,PAYLOAD,2022-01-21 20:00:01,15.48369171,0.0001921,53.2173,151.9218,29.0797,70.5011,-0.013125,-0.0065073,0.0,0 STARLINK-3156,1 49458U 21104BC  22021.83334491 -.00650730  00000-0 -13125-1 0  9996,2 49458  53.2173 151.9218 0001921  29.0797  70.5011 15.48369171 12166,6799.6330000000025,93.001,422.805,420.192,0.0
49458.0,STARLINK-3156,PAYLOAD,2022-01-21 22:00:00,15.48256254,0.0001945,53.2172,151.5244,34.0965,170.2383,-0.013323,-0.00657368,0.0,0 STARLINK-3156,1 49458U 21104BC  22021.91667824 -.00657368  00000-0 -13323-1 0  9998,2 49458  53.2172 151.5244 0001945  34.0965 170.2383 15.48256254  3683,6799.964,93.008,423.152,420.506,0.0
49458.0,STARLINK-3156,PAYLOAD,2022-01-22 14:00:01,15.47271408,0.0001173,53.2177,148.3495,18.8376,302.3019,-0.012154,-0.00584702,0.0,0 STARLINK-3156,1 49458U 21104BC  22022.58334491 -.00584702  00000-0 -12154-1 0  9995,2 49458  53.2177 148.3495 0001173  18.8376 302.3019 15.47271408  3657,6802.849,93.067,425.512,423.916,0.0
49458.0,STARLINK-3156,PAYLOAD,2022-01-22 20:00:01,15.46969631,0.0001496999999999,53.2173,147.1634,40.2568,234.0707,-0.013778,-0.00650391,0.0,0 STARLINK-3156,1 49458U 21104BC  22022.83334491 -.00650391  00000-0 -13778-1 0  9994,2 49458  53.2173 147.1634 0001497  40.2568 234.0707 15.46969631 12326,6803.734,93.085,426.617,424.58,0.0
49458.0,STARLINK-3156,PAYLOAD,2022-01-22 22:00:00,15.46855949,0.0001484,53.2173,146.767,37.7612,340.9,-0.01395,-0.00655474,0.0,0 STARLINK-3156,1 49458U 21104BC  22022.91667824 -.00655474  00000-0 -13950-1 0  9991,2 49458  53.2173 146.7670 0001484  37.7612 340.9000 15.46855949  3675,6804.066999999999,93.092,426.942,424.922,0.0
49458.0,STARLINK-3156,PAYLOAD,2022-01-23 14:00:01,15.45921965,0.0001923,53.2174,143.6012,33.1791,98.8969,-0.014393,-0.00654847,0.0,0 STARLINK-3156,1 49458U 21104BC  22023.58334491 -.00654847  00000-0 -14393-1 0  9991,2 49458  53.2174 143.6012 0001923  33.1791  98.8969 15.45921965  3683,6806.807,93.148,429.981,427.36300000000006,0.0
49458.0,STARLINK-3156,PAYLOAD,2022-01-23 20:00:01,15.45571556,0.000148,53.2171,142.4153,43.6473,40.3806,-0.014525,-0.00652988,0.0,0 STARLINK-3156,1 49458U 21104BC  22023.83334491 -.00652988  00000-0 -14525-1 0  9990,2 49458  53.2171 142.4153 0001480  43.6473  40.3806 15.45571556 12470,6807.8359999999975,93.169,430.709,428.694,0.0
49458.0,STARLINK-3156,PAYLOAD,2022-01-23 22:00:00,15.45456266,0.0001563,53.2172,142.0196,49.6102,138.3319,-0.014657,-0.00656059,0.0,0 STARLINK-3156,1 49458U 21104BC  22023.91667824 -.00656059  00000-0 -14657-1 0  9997,2 49458  53.2172 142.0196 0001563  49.6102 138.3319 15.45456266  3681,6808.175,93.176,431.104,428.976,0.0
49458.0,STARLINK-3156,PAYLOAD,2022-01-24 14:00:01,15.44522271,0.0001846,53.2173,138.8605,35.3147,262.678,-0.015101,-0.00654743,0.0,0 STARLINK-3156,1 49458U 21104BC  22024.58334491 -.00654743  00000-0 -15101-1 0  9995,2 49458  53.2173 138.8605 0001846  35.3147 262.6780 15.44522271  3676,6810.919,93.233,434.041,431.527,0.0
49458.0,STARLINK-3156,PAYLOAD,2022-01-24 20:00:01,15.44172888,0.0001523,53.2171,137.6771,50.5088,198.1741,-0.015283,-0.00654713,0.0,0 STARLINK-3156,1 49458U 21104BC  22024.83334491 -.00654713  00000-0 -15283-1 0  9991,2 49458  53.2171 137.6771 0001523  50.5088 198.1741 15.44172888 12631,6811.946,93.254,434.849,432.774,0.0
49458.0,STARLINK-3156,PAYLOAD,2022-01-24 22:00:00,15.44056998,0.0001379,53.2174,137.2822,48.2248,303.9519,-0.015391,-0.00664453,0.0,0 STARLINK-3156,1 49458U 21104BC  22024.91667824 -.00664453  00000-0 -15391-1 0  9991,2 49458  53.2174 137.2822 0001379  48.2248 303.9519 15.44056998  3674,6812.2869999999975,93.261,435.092,433.213,0.0
49458.0,STARLINK-3156,PAYLOAD,2022-01-25 14:00:01,15.43123782,0.0001896,53.2173,134.1301,32.9989,65.8641,-0.01588,-0.00664246,0.0,0 STARLINK-3156,1 49458U 21104BC  22025.58334491 -.00664246  00000-0 -15880-1 0  9999,2 49458  53.2173 134.1301 0001896  32.9989  65.8641 15.43123782  3650,6815.034000000002,93.317,438.191,435.606,0.0
49458.0,STARLINK-3156,PAYLOAD,2022-01-25 22:00:00,15.42656086,0.0001649,53.2173,132.5547,42.858,108.5084,-0.01608,-0.0066217,0.0,0 STARLINK-3156,1 49458U 21104BC  22025.91667824 -.00662170  00000-0 -16080-1 0  9992,2 49458  53.2173 132.5547 0001649  42.8580 108.5084 15.42656086 12807,6816.411,93.345,439.4,437.152,0.0
49458.0,STARLINK-3156,PAYLOAD,2022-01-26 14:00:01,15.41722308,0.0001901,53.2175,129.4094,37.4617,217.2275,-0.016568,-0.00661254,0.0,0 STARLINK-3156,1 49458U 21104BC  22026.58334491 -.00661254  00000-0 -16568-1 0  9990,2 49458  53.2175 129.4094 0001901  37.4617 217.2275 15.41722308  3689,6819.163000000001,93.402,442.324,439.732,0.0
49458.0,STARLINK-3156,PAYLOAD,2022-01-26 22:00:00,15.41257662,0.0001486999999999,53.2174,127.8372,46.8202,258.6893,-0.016922,-0.00664641,0.0,0 STARLINK-3156,1 49458U 21104BC  22026.91667824 -.00664641  00000-0 -16922-1 0  9993,2 49458  53.2174 127.8372 0001487  46.8202 258.6893 15.41257662  3672,6820.533,93.43,443.413,441.384,0.0
49458.0,STARLINK-3156,PAYLOAD,2022-01-27 04:00:00,15.40905458,0.0001792,53.2173,126.6583,38.0983,215.1601,-0.017006,-0.00660474,0.0,0 STARLINK-3156,1 49458U 21104BC  22027.16667824 -.00660474  00000-0 -17006-1 0  9995,2 49458  53.2173 126.6583 0001792  38.0983 215.1601 15.40905458 12992,6821.573,93.452,444.66,442.215,0.0
49458.0,STARLINK-3156,PAYLOAD,2022-01-27 13:48:14,15.4108221,0.0002018,53.2176,124.7176,18.0787,342.0291,-0.0080331,-0.00323786,0.0,0 STARLINK-3156,1 49458U 21104BC  22027.57516874 -.00323786  00000-0 -80331-2 0  9992,2 49458  53.2176 124.7176 0002018  18.0787 342.0291 15.41082210 11979,6821.051,93.441,444.293,441.54,0.0
49458.0,STARLINK-3156,PAYLOAD,2022-01-27 20:01:59,15.40761357,0.0001477,53.2172,123.4956,29.8213,330.2877,-0.0081070999999999,-0.0032329,0.0,0 STARLINK-3156,1 49458U 21104BC  22027.83471862 -.00323290  00000-0 -81071-2 0  9990,2 49458  53.2172 123.4956 0001477  29.8213 330.2877 15.40761357 13098,6821.998000000001,93.46,444.871,442.855,0.0
49458.0,STARLINK-3156,PAYLOAD,2022-01-27 21:35:27,15.40657135,6.52e-05,53.2173,123.1901,104.5956,255.5123,-0.0082117,-0.00326169,0.0,0 STARLINK-3156,1 49458U 21104BC  22027.89962261 -.00326169  00000-0 -82117-2 0  9994,2 49458  53.2173 123.1901 0000652 104.5956 255.5123 15.40657135 12028,6822.306,93.467,444.616,443.726,0.0
